start=new Date('2023-02-25T00:00:00.000Z').valueOf();
sats=[{"TIME_SYSTEM":"UTC","REF_FRAME":"TEME","MEAN_MOTION_DDOT":"0.0000000000000","COUNTRY_CODE":"US","EPOCH":"2023-02-24T21:07:06.114432","SITE":"AFETR","OBJECT_ID":"2020-025AW","CENTER_NAME":"EARTH","OBJECT_TYPE":"PAYLOAD","MEAN_ANOMALY":"198.2764","LAUNCH_DATE":"2020-04-22","INCLINATION":"53.0021","PERIAPSIS":"443.250","MEAN_MOTION":"15.39041090","MEAN_MOTION_DOT":"0.00126902","REV_AT_EPOCH":"15891","EPHEMERIS_TYPE":"0","APOAPSIS":"454.641","RCS_SIZE":"LARGE","MEAN_ELEMENT_THEORY":"SGP4","NORAD_CAT_ID":"45575","CLASSIFICATION_TYPE":"U","DECAY_DATE":null,"ELEMENT_SET_NO":"999","ARG_OF_PERICENTER":"161.8537","FILE":"3835059","RA_OF_ASC_NODE":"333.9485","ECCENTRICITY":"0.00083430","GP_ID":"226774171","OBJECT_NAME":"STARLINK-1326","TLE_LINE2":"2 45575  53.0021 333.9485 0008343 161.8537 198.2764 15.39041090158916","BSTAR":"0.00318660000000","PERIOD":"93.565","TLE_LINE1":"1 45575U 20025AW  23055.87993188  .00126902  00000-0  31866-2 0  9999","SEMIMAJOR_AXIS":"6827.081"},{"CENTER_NAME":"EARTH","OBJECT_ID":"2020-025AX","MEAN_ANOMALY":"276.5476","OBJECT_TYPE":"PAYLOAD","REF_FRAME":"TEME","MEAN_MOTION_DDOT":"0.0000000000000","TIME_SYSTEM":"UTC","EPOCH":"2023-02-24T12:55:31.495008","COUNTRY_CODE":"US","SITE":"AFETR","FILE":"3832867","ARG_OF_PERICENTER":"83.5680","ELEMENT_SET_NO":"999","OBJECT_NAME":"STARLINK-1328","GP_ID":"226703496","ECCENTRICITY":"0.00014680","RA_OF_ASC_NODE":"15.7990","BSTAR":"0.00116050000000","TLE_LINE2":"2 45576  53.0538  15.7990 0001468  83.5680 276.5476 15.06393388158347","SEMIMAJOR_AXIS":"6925.369","TLE_LINE1":"1 45576U 20025AX  23055.53855897  .00017043  00000-0  11605-2 0  9991","PERIOD":"95.593","MEAN_MOTION_DOT":"0.00017043","MEAN_MOTION":"15.06393388","INCLINATION":"53.0538","PERIAPSIS":"546.217","LAUNCH_DATE":"2020-04-22","RCS_SIZE":"LARGE","MEAN_ELEMENT_THEORY":"SGP4","APOAPSIS":"548.250","REV_AT_EPOCH":"15834","EPHEMERIS_TYPE":"0","CLASSIFICATION_TYPE":"U","NORAD_CAT_ID":"45576","DECAY_DATE":null},{"CLASSIFICATION_TYPE":"U","NORAD_CAT_ID":"45577","DECAY_DATE":null,"MEAN_MOTION_DOT":"0.00052241","MEAN_MOTION":"15.17671919","INCLINATION":"53.0505","PERIAPSIS":"509.615","LAUNCH_DATE":"2020-04-22","MEAN_ELEMENT_THEORY":"SGP4","RCS_SIZE":"LARGE","APOAPSIS":"516.146","REV_AT_EPOCH":"15838","EPHEMERIS_TYPE":"0","BSTAR":"0.00255860000000","TLE_LINE2":"2 45577  53.0505  10.7776 0004739 116.7502 243.3977 15.17671919158388","SEMIMAJOR_AXIS":"6891.016","TLE_LINE1":"1 45577U 20025AY  23055.32466708  .00052241  00000-0  25586-2 0  9990","PERIOD":"94.882","FILE":"3832867","ELEMENT_SET_NO":"999","ARG_OF_PERICENTER":"116.7502","OBJECT_NAME":"STARLINK-1330","ECCENTRICITY":"0.00047390","GP_ID":"226701760","RA_OF_ASC_NODE":"10.7776","EPOCH":"2023-02-24T07:47:31.235712","COUNTRY_CODE":"US","SITE":"AFETR","MEAN_MOTION_DDOT":"0.0000000000000","REF_FRAME":"TEME","TIME_SYSTEM":"UTC","MEAN_ANOMALY":"243.3977","OBJECT_TYPE":"PAYLOAD","CENTER_NAME":"EARTH","OBJECT_ID":"2020-025AY"},{"MEAN_MOTION_DDOT":"0.0000000000000","REF_FRAME":"TEME","TIME_SYSTEM":"UTC","SITE":"AFETR","EPOCH":"2023-02-24T20:42:36.388224","COUNTRY_CODE":"US","CENTER_NAME":"EARTH","OBJECT_ID":"2020-025AZ","MEAN_ANOMALY":"258.0459","OBJECT_TYPE":"PAYLOAD","MEAN_ELEMENT_THEORY":"SGP4","RCS_SIZE":"LARGE","APOAPSIS":"547.810","EPHEMERIS_TYPE":"0","REV_AT_EPOCH":"15839","MEAN_MOTION_DOT":"0.00016335","MEAN_MOTION":"15.06412489","INCLINATION":"53.0538","PERIAPSIS":"546.541","LAUNCH_DATE":"2020-04-22","DECAY_DATE":null,"CLASSIFICATION_TYPE":"U","NORAD_CAT_ID":"45578","OBJECT_NAME":"STARLINK-1331","GP_ID":"226773425","ECCENTRICITY":"0.00009160","RA_OF_ASC_NODE":"14.3415","FILE":"3835059","ELEMENT_SET_NO":"999","ARG_OF_PERICENTER":"102.0633","SEMIMAJOR_AXIS":"6925.310","TLE_LINE1":"1 45578U 20025AZ  23055.86292116  .00016335  00000-0  11126-2 0  9999","PERIOD":"95.591","TLE_LINE2":"2 45578  53.0538  14.3415 0000916 102.0633 258.0459 15.06412489158393","BSTAR":"0.00111260000000"},{"TIME_SYSTEM":"UTC","REF_FRAME":"TEME","MEAN_MOTION_DDOT":"0.0000000000000","SITE":"AFETR","COUNTRY_CODE":"US","EPOCH":"2023-02-24T17:42:09.923040","OBJECT_ID":"2020-025BA","CENTER_NAME":"EARTH","OBJECT_TYPE":"PAYLOAD","MEAN_ANOMALY":"248.6672","EPHEMERIS_TYPE":"0","REV_AT_EPOCH":"15892","APOAPSIS":"548.112","RCS_SIZE":"LARGE","MEAN_ELEMENT_THEORY":"SGP4","LAUNCH_DATE":"2020-04-22","INCLINATION":"53.0554","PERIAPSIS":"546.147","MEAN_MOTION":"15.06427519","MEAN_MOTION_DOT":"0.00023153","DECAY_DATE":null,"NORAD_CAT_ID":"45579","CLASSIFICATION_TYPE":"U","RA_OF_ASC_NODE":"335.0625","GP_ID":"226773672","ECCENTRICITY":"0.00014190","OBJECT_NAME":"STARLINK-1332","ELEMENT_SET_NO":"999","ARG_OF_PERICENTER":"111.4469","FILE":"3835059","PERIOD":"95.590","TLE_LINE1":"1 45579U 20025BA  23055.73761485  .00023153  00000-0  15670-2 0  9990","SEMIMAJOR_AXIS":"6925.264","TLE_LINE2":"2 45579  53.0554 335.0625 0001419 111.4469 248.6672 15.06427519158929","BSTAR":"0.00156700000000"},{"LAUNCH_DATE":"2020-04-22","PERIAPSIS":"546.039","INCLINATION":"53.0565","MEAN_MOTION":"15.06416202","MEAN_MOTION_DOT":"0.00014632","EPHEMERIS_TYPE":"0","REV_AT_EPOCH":"15825","APOAPSIS":"548.289","MEAN_ELEMENT_THEORY":"SGP4","RCS_SIZE":"LARGE","NORAD_CAT_ID":"45580","CLASSIFICATION_TYPE":"U","DECAY_DATE":null,"ELEMENT_SET_NO":"999","ARG_OF_PERICENTER":"100.7913","FILE":"3835059","RA_OF_ASC_NODE":"24.0073","ECCENTRICITY":"0.00016250","GP_ID":"226774422","OBJECT_NAME":"STARLINK-1333","TLE_LINE2":"2 45580  53.0565  24.0073 0001625 100.7913 259.3258 15.06416202158251","BSTAR":"0.00099873000000","PERIOD":"95.591","TLE_LINE1":"1 45580U 20025BB  23055.93571960  .00014632  00000-0  99873-3 0  9991","SEMIMAJOR_AXIS":"6925.299","TIME_SYSTEM":"UTC","MEAN_MOTION_DDOT":"0.0000000000000","REF_FRAME":"TEME","COUNTRY_CODE":"US","EPOCH":"2023-02-24T22:27:26.173440","SITE":"AFETR","OBJECT_ID":"2020-025BB","CENTER_NAME":"EARTH","OBJECT_TYPE":"PAYLOAD","MEAN_ANOMALY":"259.3258"},{"MEAN_MOTION_DDOT":"0.0000000000000","REF_FRAME":"TEME","TIME_SYSTEM":"UTC","SITE":"AFETR","COUNTRY_CODE":"US","EPOCH":"2023-02-24T20:58:32.243520","CENTER_NAME":"EARTH","OBJECT_ID":"2020-025BC","MEAN_ANOMALY":"254.5359","OBJECT_TYPE":"PAYLOAD","RCS_SIZE":"LARGE","MEAN_ELEMENT_THEORY":"SGP4","REV_AT_EPOCH":"15838","EPHEMERIS_TYPE":"0","APOAPSIS":"548.271","MEAN_MOTION":"15.06396904","MEAN_MOTION_DOT":"0.00017721","LAUNCH_DATE":"2020-04-22","INCLINATION":"53.0552","PERIAPSIS":"546.175","DECAY_DATE":null,"NORAD_CAT_ID":"45581","CLASSIFICATION_TYPE":"U","ECCENTRICITY":"0.00015130","GP_ID":"226775171","OBJECT_NAME":"STARLINK-1335","RA_OF_ASC_NODE":"14.2913","FILE":"3835059","ARG_OF_PERICENTER":"105.5797","ELEMENT_SET_NO":"999","TLE_LINE1":"1 45581U 20025BC  23055.87398430  .00017721  00000-0  12057-2 0  9994","SEMIMAJOR_AXIS":"6925.358","PERIOD":"95.592","TLE_LINE2":"2 45581  53.0552  14.2913 0001513 105.5797 254.5359 15.06396904158380","BSTAR":"0.00120570000000"},{"MEAN_MOTION_DOT":"0.00016474","MEAN_MOTION":"15.06415349","INCLINATION":"53.0545","PERIAPSIS":"546.257","LAUNCH_DATE":"2020-04-22","MEAN_ELEMENT_THEORY":"SGP4","RCS_SIZE":"LARGE","APOAPSIS":"548.077","REV_AT_EPOCH":"15837","EPHEMERIS_TYPE":"0","CLASSIFICATION_TYPE":"U","NORAD_CAT_ID":"45582","DECAY_DATE":null,"FILE":"3835059","ELEMENT_SET_NO":"999","ARG_OF_PERICENTER":"81.9315","OBJECT_NAME":"STARLINK-1337","GP_ID":"226773923","ECCENTRICITY":"0.00013140","RA_OF_ASC_NODE":"14.4808","BSTAR":"0.00112180000000","TLE_LINE2":"2 45582  53.0545  14.4808 0001314  81.9315 278.1823 15.06415349158372","SEMIMAJOR_AXIS":"6925.302","TLE_LINE1":"1 45582U 20025BD  23055.82975369  .00016474  00000-0  11218-2 0  9994","PERIOD":"95.591","MEAN_MOTION_DDOT":"0.0000000000000","REF_FRAME":"TEME","TIME_SYSTEM":"UTC","EPOCH":"2023-02-24T19:54:50.718816","COUNTRY_CODE":"US","SITE":"AFETR","CENTER_NAME":"EARTH","OBJECT_ID":"2020-025BD","MEAN_ANOMALY":"278.1823","OBJECT_TYPE":"PAYLOAD"},{"SITE":"AFETR","COUNTRY_CODE":"US","EPOCH":"2023-02-24T06:43:59.437920","TIME_SYSTEM":"UTC","MEAN_MOTION_DDOT":"0.0000000000000","REF_FRAME":"TEME","OBJECT_TYPE":"PAYLOAD","MEAN_ANOMALY":"276.0607","OBJECT_ID":"2020-025BE","CENTER_NAME":"EARTH","DECAY_DATE":null,"NORAD_CAT_ID":"45583","CLASSIFICATION_TYPE":"U","EPHEMERIS_TYPE":"0","REV_AT_EPOCH":"15769","APOAPSIS":"548.224","MEAN_ELEMENT_THEORY":"SGP4","RCS_SIZE":"LARGE","LAUNCH_DATE":"2020-04-22","PERIAPSIS":"546.227","INCLINATION":"53.0538","MEAN_MOTION":"15.06395998","MEAN_MOTION_DOT":"0.00033702","PERIOD":"95.592","TLE_LINE1":"1 45583U 20025BE  23055.28054905  .00033702  00000-0  22709-2 0  9999","SEMIMAJOR_AXIS":"6925.361","TLE_LINE2":"2 45583  53.0538  16.9562 0001442  84.0546 276.0607 15.06395998157699","BSTAR":"0.00227090000000","RA_OF_ASC_NODE":"16.9562","ECCENTRICITY":"0.00014420","GP_ID":"226725394","OBJECT_NAME":"STARLINK-1340","ELEMENT_SET_NO":"999","ARG_OF_PERICENTER":"84.0546","FILE":"3833683"},{"MEAN_ANOMALY":"260.2464","OBJECT_TYPE":"PAYLOAD","CENTER_NAME":"EARTH","OBJECT_ID":"2020-025BF","SITE":"AFETR","COUNTRY_CODE":"US","EPOCH":"2023-02-24T20:46:33.564864","MEAN_MOTION_DDOT":"0.0000000000000","REF_FRAME":"TEME","TIME_SYSTEM":"UTC","TLE_LINE1":"1 45584U 20025BF  23055.86566626  .00009333  00000-0  64458-3 0  9993","SEMIMAJOR_AXIS":"6925.345","PERIOD":"95.592","TLE_LINE2":"2 45584  53.0539  14.3196 0001878  99.8737 260.2464 15.06401151158387","BSTAR":"0.00064458000000","ECCENTRICITY":"0.00018780","GP_ID":"226774922","OBJECT_NAME":"STARLINK-1343","RA_OF_ASC_NODE":"14.3196","FILE":"3835059","ARG_OF_PERICENTER":"99.8737","ELEMENT_SET_NO":"999","DECAY_DATE":null,"NORAD_CAT_ID":"45584","CLASSIFICATION_TYPE":"U","RCS_SIZE":"LARGE","MEAN_ELEMENT_THEORY":"SGP4","REV_AT_EPOCH":"15838","EPHEMERIS_TYPE":"0","APOAPSIS":"548.511","MEAN_MOTION":"15.06401151","MEAN_MOTION_DOT":"0.00009333","LAUNCH_DATE":"2020-04-22","INCLINATION":"53.0539","PERIAPSIS":"545.909"}];
